NORAD_CAT_ID,OBJECT_NAME,OBJECT_TYPE,EPOCH,MEAN_MOTION,ECCENTRICITY,INCLINATION,RA_OF_ASC_NODE,ARG_OF_PERICENTER,MEAN_ANOMALY,BSTAR,MEAN_MOTION_DOT,MEAN_MOTION_DDOT,TLE_LINE0,TLE_LINE1,TLE_LINE2,SEMIMAJOR_AXIS,PERIOD,APOGEE,PERIGEE,DECAYED
53628.0,STARLINK-4600,PAYLOAD,2024-07-19 07:02:02,15.08844536,0.000147,53.2169,39.9804,134.1932,225.9181,8.6833e-05,1.094e-05,0.0,0 STARLINK-4600,1 53628U 22104AS  24201.29308478  .00001094  00000-0  86833-4 0  9999,2 53628  53.2169  39.9804 0001470 134.1932 225.9181 15.08844536104737,6917.867,95.437,540.748,538.715,0.0
53628.0,STARLINK-4600,PAYLOAD,2024-07-19 19:45:07,15.08844597,0.0001493,53.2171,37.6066,107.0674,253.0482,0.00023998,3.534e-05,0.0,0 STARLINK-4600,1 53628U 22104AS  24201.82300791  .00003534  00000-0  23998-3 0  9991,2 53628  53.2171  37.6066 0001493 107.0674 253.0482 15.08844597105501,6917.866,95.437,540.764,538.699,0.0
53628.0,STARLINK-4600,PAYLOAD,2024-07-19 22:55:53,15.08849663,0.0001565,53.2177,37.0111,107.3539,252.7624,0.00028828,4.304e-05,0.0,0 STARLINK-4600,1 53628U 22104AS  24201.95548554  .00004304  00000-0  28828-3 0  9999,2 53628  53.2177  37.0111 0001565 107.3539 252.7624 15.08849663105520,6917.851,95.437,540.798,538.633,0.0
53628.0,STARLINK-4600,PAYLOAD,2024-07-20 19:35:55,15.08843272,0.0001209,53.2169,33.1436,88.6246,271.4885,0.00013879,1.922e-05,0.0,0 STARLINK-4600,1 53628U 22104AS  24202.81660982  .00001922  00000-0  13879-3 0  9998,2 53628  53.2169  33.1436 0001209  88.6246 271.4885 15.08843272104963,6917.87,95.437,540.572,538.899,0.0
53628.0,STARLINK-4600,PAYLOAD,2024-07-21 05:08:13,15.08850546,0.000146,53.2159,31.3637,87.3515,272.7645,0.00024679,3.643e-05,0.0,0 STARLINK-4600,1 53628U 22104AS  24203.21404618  .00003643  00000-0  24679-3 0  9997,2 53628  53.2159  31.3637 0001460  87.3515 272.7645 15.08850546105713,6917.848,95.437,540.723,538.703,0.0
53628.0,STARLINK-4600,PAYLOAD,2024-07-21 21:02:05,15.08839183,0.000146,53.2171,28.3891,98.3176,261.7981,4.1015e-05,3.65e-06,0.0,0 STARLINK-4600,1 53628U 22104AS  24203.87644990  .00000365  00000-0  41015-4 0  9990,2 53628  53.2171  28.3891 0001460  98.3176 261.7981 15.08839183105120,6917.883,95.438,540.758,538.738,0.0
53628.0,STARLINK-4600,PAYLOAD,2024-07-22 12:55:57,15.0883808,0.0001353,53.2169,25.4149,84.3793,275.7353,5.97e-05,6.62e-06,0.0,0 STARLINK-4600,1 53628U 22104AS  24204.53885531  .00000662  00000-0  59700-4 0  9992,2 53628  53.2169  25.4149 0001353  84.3793 275.7353 15.08838080105912,6917.886,95.438,540.687,538.815,0.0
53628.0,STARLINK-4600,PAYLOAD,2024-07-23 20:43:41,15.08810356,0.0002379,53.2167,19.466,82.2658,277.8604,-0.00027698,-4.69e-05,0.0,0 STARLINK-4600,1 53628U 22104AS  24205.86367783 -.00004690  00000-0 -27698-3 0  9990,2 53628  53.2167  19.4660 0002379  82.2658 277.8604 15.08810356105421,6917.971,95.439,541.482,538.19,0.0
53628.0,STARLINK-4600,PAYLOAD,2024-07-23 22:19:04,15.08810357,0.000135,53.2166,19.1757,107.4668,252.6471,-0.0002931,-4.946e-05,0.0,0 STARLINK-4600,1 53628U 22104AS  24205.92991410 -.00004946  00000-0 -29310-3 0  9994,2 53628  53.2166  19.1757 0001350 107.4668 252.6471 15.08810357106125,6917.971,95.439,540.77,538.902,0.0
53628.0,STARLINK-4600,PAYLOAD,2024-07-24 20:34:27,15.08848725,0.0001406,53.217,15.0081,84.0436,276.0716,0.00028651,4.276e-05,0.0,0 STARLINK-4600,1 53628U 22104AS  24206.85726356  .00004276  00000-0  28651-3 0  9993,2 53628  53.2170  15.0081 0001406  84.0436 276.0716 15.08848725105570,6917.854,95.437,540.691,538.746,0.0
53628.0,STARLINK-4600,PAYLOAD,2024-07-25 10:52:56,15.08845104,0.0001226,53.2174,12.3362,97.0446,263.0686,0.00050849,7.815e-05,0.0,0 STARLINK-4600,1 53628U 22104AS  24207.45342663  .00007815  00000-0  50849-3 0  9991,2 53628  53.2174  12.3362 0001226  97.0446 263.0686 15.08845104105661,6917.865,95.437,540.578,538.882,0.0
53628.0,STARLINK-4600,PAYLOAD,2024-07-25 20:25:14,15.08843461,0.0001081,53.214,10.5494,89.3943,270.7173,0.00050808,7.808e-05,0.0,0 STARLINK-4600,1 53628U 22104AS  24207.85086528  .00007808  00000-0  50808-3 0  9997,2 53628  53.2140  10.5494 0001081  89.3943 270.7173 15.08843461106419,6917.87,95.437,540.483,538.987,0.0
53628.0,STARLINK-4600,PAYLOAD,2024-07-26 04:22:10,15.08840694,8.43e-05,53.209,9.0605,83.4477,276.6611,0.00041371,6.303e-05,0.0,0 STARLINK-4600,1 53628U 22104AS  24208.18206530  .00006303  00000-0  41371-3 0  9995,2 53628  53.2090   9.0605 0000843  83.4477 276.6611 15.08840694105777,6917.878,95.438,540.326,539.16,0.0
53628.0,STARLINK-4600,PAYLOAD,2024-07-26 17:05:14,15.08853043,8.67e-05,53.2091,6.6812,73.4414,286.6673,7.3654e-05,8.85e-06,0.0,0 STARLINK-4600,1 53628U 22104AS  24208.71197391  .00000885  00000-0  73654-4 0  9997,2 53628  53.2091   6.6812 0000867  73.4414 286.6673 15.08853043105857,6917.841,95.437,540.305,539.106,0.0
53628.0,STARLINK-4600,PAYLOAD,2024-07-27 04:12:57,15.08832122,0.0002156,53.2084,4.5997,82.3145,277.8092,-0.00022082,-3.8e-05,0.0,0 STARLINK-4600,1 53628U 22104AS  24209.17566436 -.00003800  00000-0 -22082-3 0  9998,2 53628  53.2084   4.5997 0002156  82.3145 277.8092 15.08832122105923,6917.904,95.438,541.261,538.278,0.0
53628.0,STARLINK-4600,PAYLOAD,2024-07-27 21:42:13,15.08809398,0.0002152,53.2093,1.3296,88.0737,272.0501,-0.00037674,-6.274e-05,0.0,0 STARLINK-4600,1 53628U 22104AS  24209.90432369 -.00006274  00000-0 -37674-3 0  9997,2 53628  53.2093   1.3296 0002152  88.0737 272.0501 15.08809398106726,6917.974,95.439,541.328,538.35,0.0
53628.0,STARLINK-4600,PAYLOAD,2024-07-28 10:25:17,15.08840982,9.39e-05,53.2168,358.9513,80.2551,279.8547,9.1051e-05,1.162e-05,0.0,0 STARLINK-4600,1 53628U 22104AS  24210.43422706  .00001162  00000-0  91051-4 0  9990,2 53628  53.2168 358.9513 0000939  80.2551 279.8547 15.08840982106113,6917.877,95.437,540.392,539.093,0.0
53628.0,STARLINK-4600,PAYLOAD,2024-07-28 18:22:11,15.08863335,0.0001008,53.2168,357.4644,88.1211,271.9896,0.00032305,4.86e-05,0.0,0 STARLINK-4600,1 53628U 22104AS  24210.76541593  .00004860  00000-0  32305-3 0  9996,2 53628  53.2168 357.4644 0001008  88.1211 271.9896 15.08863335106162,6917.809,95.436,540.371,538.977,0.0
53628.0,STARLINK-4600,PAYLOAD,2024-07-29 02:19:08,15.0885369,0.0001403,53.2159,355.974,75.5781,284.5367,0.00046187,7.073e-05,0.0,0 STARLINK-4600,1 53628U 22104AS  24211.09662337  .00007073  00000-0  46187-3 0  9995,2 53628  53.2159 355.9740 0001403  75.5781 284.5367 15.08853690106215,6917.839,95.437,540.674,538.733,0.0
53628.0,STARLINK-4600,PAYLOAD,2024-07-29 10:16:04,15.0884971,0.0001306,53.2198,354.4885,89.2887,270.8254,0.00042517,6.487e-05,0.0,0 STARLINK-4600,1 53628U 22104AS  24211.42782431  .00006487  00000-0  42517-3 0  9991,2 53628  53.2198 354.4885 0001306  89.2887 270.8254 15.08849710106269,6917.851,95.437,540.619,538.812,0.0
53628.0,STARLINK-4600,PAYLOAD,2024-07-29 18:12:59,15.08856106,0.0001884,53.2146,353.0041,93.8155,266.3053,0.00043133,6.586e-05,0.0,0 STARLINK-4600,1 53628U 22104AS  24211.75902170  .00006586  00000-0  43133-3 0  9996,2 53628  53.2146 353.0041 0001884  93.8155 266.3053 15.08856106107008,6917.831,95.437,540.999,538.393,0.0
53628.0,STARLINK-4600,PAYLOAD,2024-07-30 02:09:54,15.08853802,0.0001443,53.2168,351.5175,78.9733,281.1421,9.024e-05,1.149e-05,0.0,0 STARLINK-4600,1 53628U 22104AS  24212.09021697  .00001149  00000-0  90240-4 0  9992,2 53628  53.2168 351.5175 0001443  78.9733 281.1421 15.08853802107059,6917.838,95.437,540.701,538.705,0.0
53628.0,STARLINK-4600,PAYLOAD,2024-07-30 16:28:23,15.08842779,0.0001715,53.2171,348.8402,81.6841,278.4345,-0.00016108,-2.851e-05,0.0,0 STARLINK-4600,1 53628U 22104AS  24212.68637860 -.00002851  00000-0 -16108-3 0  9995,2 53628  53.2171 348.8402 0001715  81.6841 278.4345 15.08842779106456,6917.872,95.437,540.923,538.55,0.0
53628.0,STARLINK-4600,PAYLOAD,2024-07-31 13:08:24,15.08843429,0.0001712,53.217,344.976,88.8169,271.3019,-0.00023764,-4.069e-05,0.0,0 STARLINK-4600,1 53628U 22104AS  24213.54751044 -.00004069  00000-0 -23764-3 0  9991,2 53628  53.2170 344.9760 0001712  88.8169 271.3019 15.08843429106585,6917.87,95.437,540.919,538.551,0.0
53628.0,STARLINK-4600,PAYLOAD,2024-07-31 14:43:48,15.08833494,0.0001457,53.2178,344.6781,92.1802,267.9357,-0.00010193,-1.91e-05,0.0,0 STARLINK-4600,1 53628U 22104AS  24213.61375468 -.00001910  00000-0 -10193-3 0  9995,2 53628  53.2178 344.6781 0001457  92.1802 267.9357 15.08833494107286,6917.9,95.438,540.773,538.757,0.0
53628.0,STARLINK-4600,PAYLOAD,2024-07-31 17:54:33,15.08842751,0.0001385,53.2172,344.0835,96.0054,264.1096,-2.3751e-05,-6.66e-06,0.0,0 STARLINK-4600,1 53628U 22104AS  24213.74622611 -.00000666  00000-0 -23751-4 0  9996,2 53628  53.2172 344.0835 0001385  96.0054 264.1096 15.08842751107304,6917.872,95.437,540.695,538.779,0.0
53628.0,STARLINK-4600,PAYLOAD,2024-08-01 01:51:29,15.08844056,0.000141,53.2189,342.595,86.5803,273.5351,4.8984e-05,4.92e-06,0.0,0 STARLINK-4600,1 53628U 22104AS  24214.07742297  .00000492  00000-0  48984-4 0  9996,2 53628  53.2189 342.5950 0001410  86.5803 273.5351 15.08844056106664,6917.868,95.437,540.708,538.758,0.0
53628.0,STARLINK-4600,PAYLOAD,2024-08-01 14:34:33,15.0885216,0.0001354,53.2175,340.2172,87.7418,272.3729,0.00022384,3.277e-05,0.0,0 STARLINK-4600,1 53628U 22104AS  24214.60733178  .00003277  00000-0  22384-3 0  9992,2 53628  53.2175 340.2172 0001354  87.7418 272.3729 15.08852160107439,6917.843,95.437,540.645,538.772,0.0
53628.0,STARLINK-4600,PAYLOAD,2024-08-01 17:45:19,15.08847715,0.0002214,53.2179,339.619,86.6544,273.4701,0.00038599,5.862e-05,0.0,0 STARLINK-4600,1 53628U 22104AS  24214.73981068  .00005862  00000-0  38599-3 0  9996,2 53628  53.2179 339.6190 0002214  86.6544 273.4701 15.08847715106766,6917.857,95.437,541.253,538.19,0.0
53628.0,STARLINK-4600,PAYLOAD,2024-08-02 01:42:16,15.0883699,0.0001236,53.2195,338.1356,97.3064,262.8069,0.00013774,1.905e-05,0.0,0 STARLINK-4600,1 53628U 22104AS  24215.07102194  .00001905  00000-0  13774-3 0  9991,2 53628  53.2195 338.1356 0001236  97.3064 262.8069 15.08836990106819,6917.89,95.438,540.61,538.9,0.0
